FLOCK 4G-10             
1 62670U 25009BP  26068.70827885  .00013952  00000+0  52624-3 0  9995
2 62670  97.3967 150.5883 0003469 341.4844  18.6269 15.27155944121340
STARLINK-35974          
1 66862U 25281Q   26068.15395687  .00031567  00000+0  11520-2 0  9994
2 66862  43.0029 346.4961 0001821 265.8098  94.2545 15.27571682 16102
